H1 CPF  1  DLR 2021 01 09 10  5092 technosat            
H2  1704205 6203    42829 2021 01 09 00 00 00 2021 01 16 00 00 00    60 1 1  0 0 0
H9
10 0 59225  64800.000000  0       4063171.795       3645410.372      -4349873.833
10 0 59225  64860.000000  0       3912478.273       3378439.070      -4689601.863
10 0 59225  64920.000000  0       3742988.336       3098703.433      -5009524.304
10 0 59225  64980.000000  0       3555310.493       2807541.251      -5308294.838
10 0 59225  65040.000000  0       3350140.862       2506331.826      -5584656.848
10 0 59225  65100.000000  0       3128260.504       2196489.383      -5837448.477
10 0 59225  65160.000000  0       2890532.364       1879456.386      -6065607.323
10 0 59225  65220.000000  0       2637897.786       1556696.796      -6268174.645
10 0 59225  65280.000000  0       2371372.720       1229689.347      -6444299.133
10 0 59225  65340.000000  0       2092043.611        899920.812      -6593240.223
10 0 59225  65400.000000  0       1801063.013        568879.345      -6714370.986
10 0 59225  65460.000000  0       1499644.923        238047.876      -6807180.675
10 0 59225  65520.000000  0       1189059.702        -91102.478      -6871276.872
10 0 59225  65580.000000  0        870628.695       -417118.930      -6906386.985
10 0 59225  65640.000000  0        545718.692       -738573.331      -6912359.282
10 0 59225  65700.000000  0        215736.191      -1054068.312      -6889163.522
10 0 59225  65760.000000  0       -117878.565      -1362243.244      -6836891.131
10 0 59225  65820.000000  0       -453657.727      -1661780.005      -6755755.011
10 0 59225  65880.000000  0       -790112.240      -1951408.603      -6646088.878
10 0 59225  65940.000000  0      -1125738.374      -2229912.586      -6508346.076
10 0 59225  66000.000000  0      -1459024.368      -2496134.196      -6343097.882
10 0 59225  66060.000000  0      -1788457.138      -2748979.187      -6151031.361
10 0 59225  66120.000000  0      -2112529.080      -2987421.389      -5932946.832
10 0 59225  66180.000000  0      -2429744.948      -3210506.982      -5689754.866
10 0 59225  66240.000000  0      -2738628.789      -3417358.497      -5422472.865
10 0 59225  66300.000000  0      -3037730.949      -3607178.486      -5132221.086
10 0 59225  66360.000000  0      -3325634.990      -3779252.790      -4820218.168
10 0 59225  66420.000000  0      -3600964.518      -3932953.408      -4487776.236
10 0 59225  66480.000000  0      -3862389.897      -4067740.972      -4136295.589
10 0 59225  66540.000000  0      -4108634.842      -4183166.830      -3767258.981
10 0 59225  66600.000000  0      -4338482.865      -4278874.701      -3382225.488
10 0 59225  66660.000000  0      -4550783.485      -4354601.888      -2982823.949
10 0 59225  66720.000000  0      -4744458.174      -4410180.017      -2570746.064
10 0 59225  66780.000000  0      -4918506.012      -4445535.311      -2147739.167
10 0 59225  66840.000000  0      -5072009.030      -4460688.401      -1715598.706
10 0 59225  66900.000000  0      -5204137.157      -4455753.673      -1276160.451
10 0 59225  66960.000000  0      -5314152.777      -4430938.139       -831292.489
10 0 59225  67020.000000  0      -5401414.884      -4386539.848       -382887.050
10 0 59225  67080.000000  0      -5465382.773      -4322945.857         67147.842
10 0 59225  67140.000000  0      -5505619.218      -4240629.736        516896.828
10 0 59225  67200.000000  0      -5521793.141      -4140148.640        964445.733
10 0 59225  67260.000000  0      -5513681.723      -4022139.915       1407890.075
10 0 59225  67320.000000  0      -5481171.968      -3887317.326       1845343.475
10 0 59225  67380.000000  0      -5424261.735      -3736466.909       2274945.966
10 0 59225  67440.000000  0      -5343060.204      -3570442.504       2694872.153
10 0 59225  67500.000000  0      -5237787.796      -3390160.991       3103339.155
10 0 59225  67560.000000  0      -5108775.560      -3196597.257       3498614.358
10 0 59225  67620.000000  0      -4956464.025      -2990778.887       3879022.922
10 0 59225  67680.000000  0      -4781401.445      -2773780.629       4242954.967
10 0 59225  67740.000000  0      -4584241.541      -2546718.689       4588872.341
10 0 59225  67800.000000  0      -4365740.790      -2310744.922       4915315.007
10 0 59225  67860.000000  0      -4126755.260      -2067040.949       5220907.060
10 0 59225  67920.000000  0      -3868237.014      -1816812.215       5504362.359
10 0 59225  67980.000000  0      -3591230.101      -1561282.016       5764489.784
10 0 59225  68040.000000  0      -3296866.087      -1301685.460       6000198.093
10 0 59225  68100.000000  0      -2986359.169      -1039263.456       6210500.275
10 0 59225  68160.000000  0      -2661000.929       -775256.743       6394517.431
10 0 59225  68220.000000  0      -2322154.746       -510899.992       6551482.130
10 0 59225  68280.000000  0      -1971249.903       -247416.079       6680741.256
10 0 59225  68340.000000  0      -1609775.489         13989.439       6781758.406
10 0 59225  68400.000000  0      -1239274.073        272133.743       6854115.897
10 0 59225  68460.000000  0       -861335.122        525862.035       6897516.296
10 0 59225  68520.000000  0       -477588.210        774052.631       6911783.473
10 0 59225  68580.000000  0        -89696.044       1015621.845       6896863.179
10 0 59225  68640.000000  0        300652.649       1249528.651       6852823.188
10 0 59225  68700.000000  0        691750.428       1474779.133       6779852.966
10 0 59225  68760.000000  0       1081878.527       1690430.660       6678262.798
10 0 59225  68820.000000  0       1469314.300       1895595.749       6548482.501
10 0 59225  68880.000000  0       1852338.727       2089445.665       6391059.693
10 0 59225  68940.000000  0       2229243.940       2271213.721       6206657.638
10 0 59225  69000.000000  0       2598340.793       2440198.321       5996052.668
10 0 59225  69060.000000  0       2957966.449       2595765.675       5760131.116
10 0 59225  69120.000000  0       3306491.900       2737352.185       5499885.760
10 0 59225  69180.000000  0       3642329.364       2864466.500       5216411.820
10 0 59225  69240.000000  0       3963939.504       2976691.236       4910902.531
10 0 59225  69300.000000  0       4269838.527       3073684.338       4584644.359
10 0 59225  69360.000000  0       4558605.109       3155180.043       4239011.849
10 0 59225  69420.000000  0       4828887.282       3220989.600       3875462.143
10 0 59225  69480.000000  0       5079409.108       3271001.607       3495528.759
10 0 59225  69540.000000  0       5308976.719       3305181.719       3100815.080
10 0 59225  69600.000000  0       5516484.097       3323572.161       2692987.768
10 0 59225  69660.000000  0       5700918.588       3326290.907       2273769.755
10 0 59225  69720.000000  0       5861366.019       3313530.460       1844932.938
10 0 59225  69780.000000  0       5997015.376       3285556.244       1408290.607
10 0 59225  69840.000000  0       6107163.021       3242704.643        965689.657
10 0 59225  69900.000000  0       6191216.373       3185380.649        519002.597
10 0 59225  69960.000000  0       6248697.059       3114055.191         70119.470
10 0 59225  70020.000000  0       6279243.559       3029262.126       -379060.310
10 0 59225  70080.000000  0       6282613.285       2931594.876       -826636.192
10 0 59225  70140.000000  0       6258684.022       2821702.810      -1270714.652
10 0 59225  70200.000000  0       6207454.888       2700287.498      -1709417.290
10 0 59225  70260.000000  0       6129046.762       2568098.682      -2140888.969
10 0 59225  70320.000000  0       6023702.058       2425929.963      -2563305.846
10 0 59225  70380.000000  0       5891783.902       2274614.293      -2974883.167
10 0 59225  70440.000000  0       5733774.787       2115019.345      -3373882.871
10 0 59225  70500.000000  0       5550274.669       1948042.729      -3758620.989
10 0 59225  70560.000000  0       5341998.490       1774607.087      -4127474.807
10 0 59225  70620.000000  0       5109773.093       1595655.106      -4478889.679
10 0 59225  70680.000000  0       4854533.643       1412144.532      -4811385.412
10 0 59225  70740.000000  0       4577319.681       1225043.198      -5123562.317
10 0 59225  70800.000000  0       4279270.685       1035324.038      -5414106.962
10 0 59225  70860.000000  0       3961621.206        843960.145      -5681797.500
10 0 59225  70920.000000  0       3625695.611        651919.893      -5925508.626
10 0 59225  70980.000000  0       3272902.351        460162.147      -6144216.113
10 0 59225  71040.000000  0       2904727.938        269631.593      -6337000.832
10 0 59225  71100.000000  0       2522730.644         81254.182      -6503052.388
10 0 59225  71160.000000  0       2128533.887       -104067.258      -6641672.299
10 0 59225  71220.000000  0       1723819.417       -285457.248      -6752276.748
10 0 59225  71280.000000  0       1310320.204       -462071.739      -6834399.004
10 0 59225  71340.000000  0        889812.967       -633101.982      -6887691.271
10 0 59225  71400.000000  0        464110.619       -797778.141      -6911925.996
10 0 59225  71460.000000  0         35054.606       -955372.698      -6906996.769
10 0 59225  71520.000000  0       -395492.893      -1105203.617      -6872918.827
10 0 59225  71580.000000  0       -825656.918      -1246637.273      -6809829.147
10 0 59225  71640.000000  0      -1253557.832      -1379091.134      -6717986.013
10 0 59225  71700.000000  0      -1677319.434      -1502036.177      -6597768.130
10 0 59225  71760.000000  0      -2095077.147      -1614999.027      -6449673.201
10 0 59225  71820.000000  0      -2504986.097      -1717563.765      -6274316.039
10 0 59225  71880.000000  0      -2905229.167      -1809373.490      -6072426.348
10 0 59225  71940.000000  0      -3294025.087      -1890131.615      -5844846.062
99
